{
  "type": "FeatureCollection",
  "name": "amenities",
  "_note": "SAMPLE data in a placeholder area (SPEC §20.1 not yet decided).",
  "features": [
    {
      "type": "Feature",
      "properties": { "kind": "school", "name": "Sample School", "source": "osm" },
      "geometry": { "type": "Point", "coordinates": [73.8507, 18.5284] }
    },
    {
      "type": "Feature",
      "properties": { "kind": "hospital", "name": "Sample Hospital", "source": "osm" },
      "geometry": { "type": "Point", "coordinates": [73.8527, 18.5144] }
    },
    {
      "type": "Feature",
      "properties": { "kind": "market", "name": "Sample Market", "source": "osm" },
      "geometry": { "type": "Point", "coordinates": [73.8522, 18.5214] }
    }
  ]
}
